{
  "type": "FeatureCollection",
  "features": [
    {
      "type": "Feature",
      "properties": {
        "norad_id": 33913,
        "name": "COSMOS 2251 DEB",
        "group": "cosmos-2251-debris",
        "lat": 61.46781486709727,
        "lon": -170.1659785755902,
        "alt_km": 757.5768176520533,
        "timestamp": "2025-12-26T09:30:54.032873+00:00",
        "meta_object_name": "COSMOS 2251 DEB",
        "meta_object_id": "1993-036DS",
        "meta_epoch": "2025-12-25T20:30:08.870112",
        "meta_mean_motion": 14.48539545,
        "meta_eccentricity": 0.0048173,
        "meta_inclination": 74.0332,
        "meta_ra_of_asc_node": 159.0733,
        "meta_arg_of_pericenter": 259.2078,
        "meta_mean_anomaly": 220.5321,
        "meta_ephemeris_type": 0,
        "meta_classification_type": "U",
        "meta_norad_cat_id": 33913,
        "meta_element_set_no": 999,
        "meta_rev_at_epoch": 88647,
        "meta_bstar": 0.00064836417,
        "meta_mean_motion_dot": 2.443e-05,
        "meta_mean_motion_ddot": 0,
        "tle_line1": "1 33913U 93036DS  25359.85426933  .00002443  00000+0  64836-3 0  9996",
        "tle_line2": "2 33913  74.0332 159.0733 0048173 259.2078 220.5321 14.48539545886470"
      },
      "geometry": {
        "type": "Point",
        "coordinates": [
          -170.1659785755902,
          61.46781486709727
        ]
      }
    },
    {
      "type": "Feature",
      "properties": {
        "norad_id": 33914,
        "name": "COSMOS 2251 DEB",
        "group": "cosmos-2251-debris",
        "lat": -52.463292586664075,
        "lon": -165.62319203813166,
        "alt_km": 1174.0080877465398,
        "timestamp": "2025-12-26T09:30:54.032883+00:00",
        "meta_object_name": "COSMOS 2251 DEB",
        "meta_object_id": "1993-036DT",
        "meta_epoch": "2025-12-26T03:29:35.982240",
        "meta_mean_motion": 13.71992842,
        "meta_eccentricity": 0.0300775,
        "meta_inclination": 74.0912,
        "meta_ra_of_asc_node": 353.0015,
        "meta_arg_of_pericenter": 92.7934,
        "meta_mean_anomaly": 341.7967,
        "meta_ephemeris_type": 0,
        "meta_classification_type": "U",
        "meta_norad_cat_id": 33914,
        "meta_element_set_no": 999,
        "meta_rev_at_epoch": 84265,
        "meta_bstar": 0.0002703,
        "meta_mean_motion_dot": 3.19e-06,
        "meta_mean_motion_ddot": 0,
        "tle_line1": "1 33914U 93036DT  25360.14555535  .00000319  00000+0  27030-3 0  9997",
        "tle_line2": "2 33914  74.0912 353.0015 0300775  92.7934 341.7967 13.71992842842656"
      },
      "geometry": {
        "type": "Point",
        "coordinates": [
          -165.62319203813166,
          -52.463292586664075
        ]
      }
    },
    {
      "type": "Feature",
      "properties": {
        "norad_id": 33915,
        "name": "COSMOS 2251 DEB",
        "group": "cosmos-2251-debris",
        "lat": -34.4464717652122,
        "lon": -159.6043753894949,
        "alt_km": 814.8661004835321,
        "timestamp": "2025-12-26T09:30:54.032893+00:00",
        "meta_object_name": "COSMOS 2251 DEB",
        "meta_object_id": "1993-036DU",
        "meta_epoch": "2025-12-26T02:05:41.135424",
        "meta_mean_motion": 14.35111094,
        "meta_eccentricity": 0.0103988,
        "meta_inclination": 74.0429,
        "meta_ra_of_asc_node": 9.6442,
        "meta_arg_of_pericenter": 98.5899,
        "meta_mean_anomaly": 319.6041,
        "meta_ephemeris_type": 0,
        "meta_classification_type": "U",
        "meta_norad_cat_id": 33915,
        "meta_element_set_no": 999,
        "meta_rev_at_epoch": 87949,
        "meta_bstar": 0.0003368,
        "meta_mean_motion_dot": 9.96e-06,
        "meta_mean_motion_ddot": 0,
        "tle_line1": "1 33915U 93036DU  25360.08728166  .00000996  00000+0  33680-3 0  9992",
        "tle_line2": "2 33915  74.0429   9.6442 0103988  98.5899 319.6041 14.35111094879491"
      },
      "geometry": {
        "type": "Point",
        "coordinates": [
          -159.6043753894949,
          -34.4464717652122
        ]
      }
    },
    {
      "type": "Feature",
      "properties": {
        "norad_id": 33916,
        "name": "COSMOS 2251 DEB",
        "group": "cosmos-2251-debris",
        "lat": -23.257315616919975,
        "lon": 11.089774997890038,
        "alt_km": 1211.7787420066616,
        "timestamp": "2025-12-26T09:30:54.032904+00:00",
        "meta_object_name": "COSMOS 2251 DEB",
        "meta_object_id": "1993-036DV",
        "meta_epoch": "2025-12-26T02:58:10.766208",
        "meta_mean_motion": 13.68626751,
        "meta_eccentricity": 0.0324727,
        "meta_inclination": 74.0518,
        "meta_ra_of_asc_node": 18.5968,
        "meta_arg_of_pericenter": 187.865,
        "meta_mean_anomaly": 242.7935,
        "meta_ephemeris_type": 0,
        "meta_classification_type": "U",
        "meta_norad_cat_id": 33916,
        "meta_element_set_no": 999,
        "meta_rev_at_epoch": 84074,
        "meta_bstar": 0.00028346,
        "meta_mean_motion_dot": 3.3e-06,
        "meta_mean_motion_ddot": 0,
        "tle_line1": "1 33916U 93036DV  25360.12373572  .00000330  00000+0  28346-3 0  9990",
        "tle_line2": "2 33916  74.0518  18.5968 0324727 187.8650 242.7935 13.68626751840746"
      },
      "geometry": {
        "type": "Point",
        "coordinates": [
          11.089774997890038,
          -23.257315616919975
        ]
      }
    },
    {
      "type": "Feature",
      "properties": {
        "norad_id": 33917,
        "name": "COSMOS 2251 DEB",
        "group": "cosmos-2251-debris",
        "lat": 72.7380468965469,
        "lon": 166.4683293601408,
        "alt_km": 1090.0615198691858,
        "timestamp": "2025-12-26T09:30:54.032914+00:00",
        "meta_object_name": "COSMOS 2251 DEB",
        "meta_object_id": "1993-036DW",
        "meta_epoch": "2025-12-25T17:18:27.771264",
        "meta_mean_motion": 13.6938971,
        "meta_eccentricity": 0.03311389,
        "meta_inclination": 74.1073,
        "meta_ra_of_asc_node": 101.1083,
        "meta_arg_of_pericenter": 199.2418,
        "meta_mean_anomaly": 159.5953,
        "meta_ephemeris_type": 0,
        "meta_classification_type": "U",
        "meta_norad_cat_id": 33917,
        "meta_element_set_no": 999,
        "meta_rev_at_epoch": 83911,
        "meta_bstar": 0.0010734281,
        "meta_mean_motion_dot": 1.349e-05,
        "meta_mean_motion_ddot": 0,
        "tle_line1": "1 33917U 93036DW  25359.72115476  .00001349  00000+0  10734-2 0  9994",
        "tle_line2": "2 33917  74.1073 101.1083 0331138 199.2418 159.5953 13.69389710839110"
      },
      "geometry": {
        "type": "Point",
        "coordinates": [
          166.4683293601408,
          72.7380468965469
        ]
      }
    },
    {
      "type": "Feature",
      "properties": {
        "norad_id": 33920,
        "name": "COSMOS 2251 DEB",
        "group": "cosmos-2251-debris",
        "lat": -38.507916757893234,
        "lon": 105.61739999767397,
        "alt_km": 689.3945340432037,
        "timestamp": "2025-12-26T09:30:54.032925+00:00",
        "meta_object_name": "COSMOS 2251 DEB",
        "meta_object_id": "1993-036DZ",
        "meta_epoch": "2025-12-25T19:20:05.558496",
        "meta_mean_motion": 14.58472232,
        "meta_eccentricity": 0.00376879,
        "meta_inclination": 74.061,
        "meta_ra_of_asc_node": 273.5967,
        "meta_arg_of_pericenter": 278.0618,
        "meta_mean_anomaly": 81.6272,
        "meta_ephemeris_type": 0,
        "meta_classification_type": "U",
        "meta_norad_cat_id": 33920,
        "meta_element_set_no": 999,
        "meta_rev_at_epoch": 88305,
        "meta_bstar": 0.0016700668,
        "meta_mean_motion_dot": 7.807e-05,
        "meta_mean_motion_ddot": 0,
        "tle_line1": "1 33920U 93036DZ  25359.80561989  .00007807  00000+0  16701-2 0  9996",
        "tle_line2": "2 33920  74.0610 273.5967 0037687 278.0618  81.6272 14.58472232883057"
      },
      "geometry": {
        "type": "Point",
        "coordinates": [
          105.61739999767397,
          -38.507916757893234
        ]
      }
    },
    {
      "type": "Feature",
      "properties": {
        "norad_id": 33922,
        "name": "COSMOS 2251 DEB",
        "group": "cosmos-2251-debris",
        "lat": -65.98784978633388,
        "lon": 82.20843335140954,
        "alt_km": 725.0087438951014,
        "timestamp": "2025-12-26T09:30:54.032935+00:00",
        "meta_object_name": "COSMOS 2251 DEB",
        "meta_object_id": "1993-036EB",
        "meta_epoch": "2025-12-25T19:31:12.971712",
        "meta_mean_motion": 14.49555987,
        "meta_eccentricity": 0.0023093,
        "meta_inclination": 74.0471,
        "meta_ra_of_asc_node": 123.2498,
        "meta_arg_of_pericenter": 232.4585,
        "meta_mean_anomaly": 253.8509,
        "meta_ephemeris_type": 0,
        "meta_classification_type": "U",
        "meta_norad_cat_id": 33922,
        "meta_element_set_no": 999,
        "meta_rev_at_epoch": 88767,
        "meta_bstar": 0.00055201276,
        "meta_mean_motion_dot": 2.098e-05,
        "meta_mean_motion_ddot": 0,
        "tle_line1": "1 33922U 93036EB  25359.81334458  .00002098  00000+0  55201-3 0  9994",
        "tle_line2": "2 33922  74.0471 123.2498 0023093 232.4585 253.8509 14.49555987887674"
      },
      "geometry": {
        "type": "Point",
        "coordinates": [
          82.20843335140954,
          -65.98784978633388
        ]
      }
    }
  ]
}